OBJECT_NAME,OBJECT_ID,EPOCH,MEAN_MOTION,ECCENTRICITY,INCLINATION,RA_OF_ASC_NODE,ARG_OF_PERICENTER,MEAN_ANOMALY,EPHEMERIS_TYPE,CLASSIFICATION_TYPE,NORAD_CAT_ID,ELEMENT_SET_NO,REV_AT_EPOCH,BSTAR,MEAN_MOTION_DOT,MEAN_MOTION_DDOT
IRIDIUM 138,2017-083B,2026-07-07T08:09:39.034368,14.34218298,.0002103,86.3994,313.2889,89.5450,270.5986,0,U,43071,999,44702,.1305E-4,.56E-6,0
IRIDIUM 116,2017-083C,2026-07-07T09:04:27.011424,14.34219138,.000235,86.3981,313.5601,101.0175,259.1285,0,U,43072,999,44706,.86806E-4,.263E-5,0
IRIDIUM 130,2017-083D,2026-07-07T06:38:19.008096,14.34218364,.0002143,86.3989,313.8797,100.3823,259.7615,0,U,43073,999,44699,.23577E-4,.86E-6,0
IRIDIUM 151,2017-083E,2026-07-07T07:42:15.003072,14.34218717,.0002226,86.3985,313.6424,94.2224,265.9226,0,U,43074,999,44702,.2772E-4,.97E-6,0
IRIDIUM 134,2017-083F,2026-07-07T08:37:03.106272,14.34217239,.0002063,86.3981,313.6347,95.3322,264.8109,0,U,43075,999,44699,-.34221E-4,-.76E-6,0
IRIDIUM 137,2017-083G,2026-07-07T08:55:19.248384,14.34216552,.0002636,86.3985,313.7225,97.5649,262.5847,0,U,43076,999,44706,.77758E-4,.238E-5,0
IRIDIUM 141,2017-083H,2026-07-07T07:05:43.106784,14.34218090,.0002184,86.3980,313.5837,92.1651,267.9794,0,U,43077,999,44705,.12371E-4,.54E-6,0
IRIDIUM 153,2017-083J,2026-07-07T05:56:51.347328,14.34216609,.0002103,86.3964,282.0844,95.1851,264.9585,0,U,43078,999,44815,.79338E-4,.242E-5,0
IRIDIUM 131,2017-083K,2026-07-07T08:27:55.134144,14.34217683,.0002131,86.3984,313.7473,93.2844,266.8595,0,U,43079,999,44699,-.69925E-5,0,0
IRIDIUM 144,2018-030A,2026-07-07T06:05:59.406720,14.34217924,.000235,86.3962,282.0101,97.9104,262.2358,0,U,43249,999,43301,.16711E-4,.67E-6,0
IRIDIUM 149,2018-030B,2026-07-07T04:34:39.397728,14.34222789,.0002576,86.3933,282.0073,75.2304,284.9177,0,U,43250,999,43302,.56344E-4,.178E-5,0
IRIDIUM 157,2018-030C,2026-07-07T05:02:03.309792,14.34218394,.0002259,86.3965,282.0494,95.3867,264.7586,0,U,43251,999,43300,.18429E-4,.71E-6,0
IRIDIUM 140,2018-030D,2026-07-07T05:29:27.153600,14.34219261,.0002238,86.3962,282.0536,95.8543,264.2908,0,U,43252,999,43306,.42393E-4,.139E-5,0
IRIDIUM 145,2018-030E,2026-07-07T05:11:10.874112,14.34216769,.0002375,86.3962,282.0312,102.6946,257.4515,0,U,43253,999,43299,.2887E-4,.101E-5,0
IRIDIUM 146,2018-030F,2026-07-07T06:24:15.234336,14.34218807,.000234,86.3962,282.0221,97.8773,262.2689,0,U,43254,999,43301,.24221E-4,.88E-6,0
IRIDIUM 148,2018-030G,2026-07-07T05:38:35.399616,14.34217551,.0002365,86.3966,282.0790,95.8923,264.2542,0,U,43255,999,43304,.54083E-4,.171E-5,0
IRIDIUM 142,2018-030H,2026-07-07T04:52:55.403328,14.34216292,.0002336,86.3962,281.9803,99.3967,260.7493,0,U,43256,999,43300,.79963E-4,.244E-5,0
IRIDIUM 150,2018-030J,2026-07-07T05:47:43.262016,14.34218679,.0002231,86.3963,282.0815,96.3515,263.7935,0,U,43257,999,43303,.25813E-4,.92E-6,0
IRIDIUM 143,2018-030K,2026-07-07T05:20:19.230720,14.34217760,.000228,86.3968,282.1828,97.7387,262.4067,0,U,43258,999,43296,.32737E-4,.111E-5,0
IRIDIUM 161,2018-047C,2026-07-06T17:17:12.571296,14.43283247,.0002389,86.4471,80.3035,79.2434,280.9035,0,U,43478,999,42795,.7509E-4,.273E-5,0
IRIDIUM 152,2018-047D,2026-07-07T03:00:34.997184,14.34217994,.0002182,86.3946,79.9954,81.9953,278.1490,0,U,43479,999,42534,.68497E-4,.212E-5,0
IRIDIUM 147,2018-047E,2026-07-06T17:06:53.834976,14.34217455,.0002281,86.3948,80.1733,87.9808,272.1649,0,U,43480,999,42528,.69817E-4,.215E-5,0
IRIDIUM 110,2018-047F,2026-07-06T17:16:02.116416,14.34218959,.0002313,86.3950,80.2631,76.3409,283.8044,0,U,43481,999,42527,.76782E-4,.235E-5,0
IRIDIUM 162,2018-047G,2026-07-07T03:07:09.287040,14.43282238,.0002224,86.4470,80.0230,84.0325,276.1129,0,U,43482,999,42800,.72851E-4,.265E-5,0
IRIDIUM 160,2018-061A,2026-07-07T02:00:50.516064,14.34213932,.0002524,86.3945,48.4757,85.2920,274.8564,0,U,43569,999,41622,.39495E-4,.13E-5,0
IRIDIUM 166,2018-061B,2026-07-07T00:56:54.395808,14.34217934,.0002235,86.3943,48.4446,89.2418,270.9034,0,U,43570,999,41624,.28302E-5,.28E-6,0
IRIDIUM 158,2018-061C,2026-07-07T00:11:14.302752,14.34217583,.0002125,86.3943,48.4678,85.1897,274.9542,0,U,43571,999,41620,.45561E-4,.147E-5,0
IRIDIUM 165,2018-061D,2026-07-06T16:25:26.220864,14.34218995,.0002183,86.3945,48.6499,89.8150,270.3296,0,U,43572,999,41618,.33268E-4,.113E-5,0
IRIDIUM 155,2018-061E,2026-07-06T15:30:38.153952,14.34217313,.0002138,86.3941,48.5339,87.7088,272.4353,0,U,43573,999,41614,.80424E-4,.245E-5,0
IRIDIUM 154,2018-061F,2026-07-07T01:06:02.100960,14.34219421,.0002291,86.3945,48.5014,89.3708,270.7751,0,U,43574,999,41625,.52718E-4,.167E-5,0
IRIDIUM 163,2018-061G,2026-07-07T00:38:38.245056,14.34216465,.0002218,86.3941,48.4239,86.1815,273.9634,0,U,43575,999,41622,.60241E-4,.188E-5,0
