IRIDIUM 138             
1 43071U 17083B   26188.34003512  .00000056  00000+0  13050-4 0  9990
2 43071  86.3994 313.2889 0002103  89.5450 270.5986 14.34218298447023
IRIDIUM 116             
1 43072U 17083C   26188.37809041  .00000263  00000+0  86806-4 0  9994
2 43072  86.3981 313.5601 0002350 101.0175 259.1285 14.34219138447066
IRIDIUM 130             
1 43073U 17083D   26188.27660889  .00000086  00000+0  23577-4 0  9998
2 43073  86.3989 313.8797 0002143 100.3823 259.7615 14.34218364446990
IRIDIUM 151             
1 43074U 17083E   26188.32100698  .00000097  00000+0  27720-4 0  9998
2 43074  86.3985 313.6424 0002226  94.2224 265.9226 14.34218717447024
IRIDIUM 134             
1 43075U 17083F   26188.35906373 -.00000076  00000+0 -34221-4 0  9999
2 43075  86.3981 313.6347 0002063  95.3322 264.8109 14.34217239446996
IRIDIUM 137             
1 43076U 17083G   26188.37175056  .00000238  00000+0  77758-4 0  9998
2 43076  86.3985 313.7225 0002636  97.5649 262.5847 14.34216552447069
IRIDIUM 141             
1 43077U 17083H   26188.29563781  .00000054  00000+0  12371-4 0  9992
2 43077  86.3980 313.5837 0002184  92.1651 267.9794 14.34218090447052
IRIDIUM 153             
1 43078U 17083J   26188.24781652  .00000242  00000+0  79338-4 0  9992
2 43078  86.3964 282.0844 0002103  95.1851 264.9585 14.34216609448150
IRIDIUM 131             
1 43079U 17083K   26188.35272146  .00000000  00000+0 -69925-5 0  9993
2 43079  86.3984 313.7473 0002131  93.2844 266.8595 14.34217683446990
IRIDIUM 144             
1 43249U 18030A   26188.25415980  .00000067  00000+0  16711-4 0  9995
2 43249  86.3962 282.0101 0002350  97.9104 262.2358 14.34217924433018
IRIDIUM 149             
1 43250U 18030B   26188.19073377  .00000178  00000+0  56344-4 0  9999
2 43250  86.3933 282.0073 0002576  75.2304 284.9177 14.34222789433023
IRIDIUM 157             
1 43251U 18030C   26188.20976053  .00000071  00000+0  18429-4 0  9999
2 43251  86.3965 282.0494 0002259  95.3867 264.7586 14.34218394433006
IRIDIUM 140             
1 43252U 18030D   26188.22878650  .00000139  00000+0  42393-4 0  9998
2 43252  86.3962 282.0536 0002238  95.8543 264.2908 14.34219261433067
IRIDIUM 145             
1 43253U 18030E   26188.21609808  .00000101  00000+0  28870-4 0  9998
2 43253  86.3962 282.0312 0002375 102.6946 257.4515 14.34216769432995
IRIDIUM 146             
1 43254U 18030F   26188.26684299  .00000088  00000+0  24221-4 0  9991
2 43254  86.3962 282.0221 0002340  97.8773 262.2689 14.34218807433015
IRIDIUM 148             
1 43255U 18030G   26188.23513194  .00000171  00000+0  54083-4 0  9996
2 43255  86.3966 282.0790 0002365  95.8923 264.2542 14.34217551433041
IRIDIUM 142             
1 43256U 18030H   26188.20341902  .00000244  00000+0  79963-4 0  9995
2 43256  86.3962 281.9803 0002336  99.3967 260.7493 14.34216292433009
IRIDIUM 150             
1 43257U 18030J   26188.24147294  .00000092  00000+0  25813-4 0  9994
2 43257  86.3963 282.0815 0002231  96.3515 263.7935 14.34218679433034
IRIDIUM 143             
1 43258U 18030K   26188.22244480  .00000111  00000+0  32737-4 0  9993
2 43258  86.3968 282.1828 0002280  97.7387 262.4067 14.34217760432964
IRIDIUM 161             
1 43478U 18047C   26187.72028439  .00000273  00000+0  75090-4 0  9991
2 43478  86.4471  80.3035 0002389  79.2434 280.9035 14.43283247427950
IRIDIUM 152             
1 43479U 18047D   26188.12540506  .00000212  00000+0  68497-4 0  9997
2 43479  86.3946  79.9954 0002182  81.9953 278.1490 14.34217994425349
IRIDIUM 147             
1 43480U 18047E   26187.71312309  .00000215  00000+0  69817-4 0  9991
2 43480  86.3948  80.1733 0002281  87.9808 272.1649 14.34217455425282
IRIDIUM 110             
1 43481U 18047F   26187.71946894  .00000235  00000+0  76782-4 0  9995
2 43481  86.3950  80.2631 0002313  76.3409 283.8044 14.34218959425276
IRIDIUM 162             
1 43482U 18047G   26188.12996860  .00000265  00000+0  72851-4 0  9996
2 43482  86.4470  80.0230 0002224  84.0325 276.1129 14.43282238428006
IRIDIUM 160             
1 43569U 18061A   26188.08391801  .00000130  00000+0  39495-4 0  9995
2 43569  86.3945  48.4757 0002524  85.2920 274.8564 14.34213932416221
IRIDIUM 166             
1 43570U 18061B   26188.03951847  .00000028  00000+0  28302-5 0  9996
2 43570  86.3943  48.4446 0002235  89.2418 270.9034 14.34217934416248
IRIDIUM 158             
1 43571U 18061C   26188.00780443  .00000147  00000+0  45561-4 0  9993
2 43571  86.3943  48.4678 0002125  85.1897 274.9542 14.34217583416204
IRIDIUM 165             
1 43572U 18061D   26187.68433126  .00000113  00000+0  33268-4 0  9994
2 43572  86.3945  48.6499 0002183  89.8150 270.3296 14.34218995416188
IRIDIUM 155             
1 43573U 18061E   26187.64627493  .00000245  00000+0  80424-4 0  9995
2 43573  86.3941  48.5339 0002138  87.7088 272.4353 14.34217313416140
IRIDIUM 154             
1 43574U 18061F   26188.04585765  .00000167  00000+0  52718-4 0  9994
2 43574  86.3945  48.5014 0002291  89.3708 270.7751 14.34219421416259
IRIDIUM 163             
1 43575U 18061G   26188.02683154  .00000188  00000+0  60241-4 0  9997
2 43575  86.3941  48.4239 0002218  86.1815 273.9634 14.34216465416224
